{"type": "FeatureCollection", "features": [ {"type": "Feature", "properties": {"norad_id": 67030, "name": "STARLINK-36138", "group": "last-30-days", "lat": -36.87655096963634, "lon": -18.340833571114562, "alt_km": 352.9169540260773, "timestamp": "2025-12-24T20:42:19.748526+00:00", "meta": {"OBJECT_NAME": "STARLINK-36138", "OBJECT_ID": "2025-294A", "EPOCH": "2025-12-24T06:00:02.000160", "MEAN_MOTION": 15.75327039, "ECCENTRICITY": 0.00014904, "INCLINATION": 42.9997, "RA_OF_ASC_NODE": 111.7549, "ARG_OF_PERICENTER": 270.8044, "MEAN_ANOMALY": 94.6578, "EPHEMERIS_TYPE": 0, "CLASSIFICATION_TYPE": "U", "NORAD_CAT_ID": 67030, "ELEMENT_SET_NO": 999, "REV_AT_EPOCH": 196, "BSTAR": -0.01397677, "MEAN_MOTION_DOT": -0.01892397, "MEAN_MOTION_DDOT": 0}, "tle": {"line1": "1 67030U 25294A   25358.25002315 -.01892397  00000+0 -13977-1 0  9997", "line2": "2 67030  42.9997 111.7549 0001490 270.8044  94.6578 15.75327039  1962"}}, "geometry": {"type": "Point", "coordinates": [-18.340833571114562, -36.87655096963634]}}, {"type": "Feature", "properties": {"norad_id": 67031, "name": "STARLINK-36150", "group": "last-30-days", "lat": -37.5893568026897, "lon": -16.259456885723488, "alt_km": 352.861752269695, "timestamp": "2025-12-24T20:42:19.748539+00:00", "meta": {"OBJECT_NAME": "STARLINK-36150", "OBJECT_ID": "2025-294B", "EPOCH": "2025-12-24T06:00:02.000160", "MEAN_MOTION": 15.75334547, "ECCENTRICITY": 0.00016356, "INCLINATION": 42.9998, "RA_OF_ASC_NODE": 111.7502, "ARG_OF_PERICENTER": 273.7375, "MEAN_ANOMALY": 93.5157, "EPHEMERIS_TYPE": 0, "CLASSIFICATION_TYPE": "U", "NORAD_CAT_ID": 67031, "ELEMENT_SET_NO": 999, "REV_AT_EPOCH": 215, "BSTAR": -0.01395213, "MEAN_MOTION_DOT": -0.01890185, "MEAN_MOTION_DDOT": 0}, "tle": {"line1": "1 67031U 25294B   25358.25002315 -.01890185  00000+0 -13952-1 0  9994", "line2": "2 67031  42.9998 111.7502 0001635 273.7375  93.5157 15.75334547  2158"}}, "geometry": {"type": "Point", "coordinates": [-16.259456885723488, -37.5893568026897]}}, {"type": "Feature", "properties": {"norad_id": 67032, "name": "STARLINK-36131", "group": "last-30-days", "lat": -39.06678456577493, "lon": -11.386440226067645, "alt_km": 352.8532833136733, "timestamp": "2025-12-24T20:42:19.748549+00:00", "meta": {"OBJECT_NAME": "STARLINK-36131", "OBJECT_ID": "2025-294C", "EPOCH": "2025-12-24T06:00:02.000160", "MEAN_MOTION": 15.75327392, "ECCENTRICITY": 0.00016241, "INCLINATION": 42.9999, "RA_OF_ASC_NODE": 111.7396, "ARG_OF_PERICENTER": 268.3366, "MEAN_ANOMALY": 103.0533, "EPHEMERIS_TYPE": 0, "CLASSIFICATION_TYPE": "U", "NORAD_CAT_ID": 67032, "ELEMENT_SET_NO": 999, "REV_AT_EPOCH": 196, "BSTAR": -0.01402699, "MEAN_MOTION_DOT": -0.01898432, "MEAN_MOTION_DDOT": 0}, "tle": {"line1": "1 67032U 25294C   25358.25002315 -.01898432  00000+0 -14027-1 0  9992", "line2": "2 67032  42.9999 111.7396 0001624 268.3366 103.0533 15.75327392  1962"}}, "geometry": {"type": "Point", "coordinates": [-11.386440226067645, -39.06678456577493]}}, {"type": "Feature", "properties": {"norad_id": 67033, "name": "STARLINK-36137", "group": "last-30-days", "lat": -38.347739620381766, "lon": -13.865927384734993, "alt_km": 352.8851226732586, "timestamp": "2025-12-24T20:42:19.748559+00:00", "meta": {"OBJECT_NAME": "STARLINK-36137", "OBJECT_ID": "2025-294D", "EPOCH": "2025-12-24T06:00:02.000160", "MEAN_MOTION": 15.75326048, "ECCENTRICITY": 0.00016431, "INCLINATION": 42.9997, "RA_OF_ASC_NODE": 111.745, "ARG_OF_PERICENTER": 273.2416, "MEAN_ANOMALY": 96.0724, "EPHEMERIS_TYPE": 0, "CLASSIFICATION_TYPE": "U", "NORAD_CAT_ID": 67033, "ELEMENT_SET_NO": 999, "REV_AT_EPOCH": 196, "BSTAR": -0.013971455, "MEAN_MOTION_DOT": -0.01891842, "MEAN_MOTION_DDOT": 0}, "tle": {"line1": "1 67033U 25294D   25358.25002315 -.01891842  00000+0 -13971-1 0  9998", "line2": "2 67033  42.9997 111.7450 0001643 273.2416  96.0724 15.75326048  1964"}}, "geometry": {"type": "Point", "coordinates": [-13.865927384734993, -38.347739620381766]}}, {"type": "Feature", "properties": {"norad_id": 67034, "name": "STARLINK-36140", "group": "last-30-days", "lat": -39.76211162906263, "lon": -8.735366811464822, "alt_km": 352.8777116040237, "timestamp": "2025-12-24T20:42:19.748569+00:00", "meta": {"OBJECT_NAME": "STARLINK-36140", "OBJECT_ID": "2025-294E", "EPOCH": "2025-12-24T06:00:02.000160", "MEAN_MOTION": 15.75310125, "ECCENTRICITY": 0.00017081, "INCLINATION": 42.9998, "RA_OF_ASC_NODE": 111.7344, "ARG_OF_PERICENTER": 271.3703, "MEAN_ANOMALY": 102.2206, "EPHEMERIS_TYPE": 0, "CLASSIFICATION_TYPE": "U", "NORAD_CAT_ID": 67034, "ELEMENT_SET_NO": 999, "REV_AT_EPOCH": 196, "BSTAR": -0.013995551, "MEAN_MOTION_DOT": -0.01893569, "MEAN_MOTION_DDOT": 0}, "tle": {"line1": "1 67034U 25294E   25358.25002315 -.01893569  00000+0 -13996-1 0  9994", "line2": "2 67034  42.9998 111.7344 0001708 271.3703 102.2206 15.75310125  1962"}}, "geometry": {"type": "Point", "coordinates": [-8.735366811464822, -39.76211162906263]}}, {"type": "Feature", "properties": {"norad_id": 67035, "name": "STARLINK-36085", "group": "last-30-days", "lat": -40.974876478522766, "lon": -3.2313264289946844, "alt_km": 352.9587575103651, "timestamp": "2025-12-24T20:42:19.748578+00:00", "meta": {"OBJECT_NAME": "STARLINK-36085", "OBJECT_ID": "2025-294F", "EPOCH": "2025-12-24T06:00:02.000160", "MEAN_MOTION": 15.75272833, "ECCENTRICITY": 0.00016938, "INCLINATION": 42.9998, "RA_OF_ASC_NODE": 111.7231, "ARG_OF_PERICENTER": 269.5324, "MEAN_ANOMALY": 108.509, "EPHEMERIS_TYPE": 0, "CLASSIFICATION_TYPE": "U", "NORAD_CAT_ID": 67035, "ELEMENT_SET_NO": 999, "REV_AT_EPOCH": 196, "BSTAR": -0.0139759, "MEAN_MOTION_DOT": -0.01888544, "MEAN_MOTION_DDOT": 0}, "tle": {"line1": "1 67035U 25294F   25358.25002315 -.01888544  00000+0 -13976-1 0  9990", "line2": "2 67035  42.9998 111.7231 0001693 269.5324 108.5090 15.75272833  1962"}}, "geometry": {"type": "Point", "coordinates": [-3.2313264289946844, -40.974876478522766]}}, {"type": "Feature", "properties": {"norad_id": 67036, "name": "STARLINK-36125", "group": "last-30-days", "lat": -40.40090904405487, "lon": -6.010236618002734, "alt_km": 352.95363960292616, "timestamp": "2025-12-24T20:42:19.748590+00:00", "meta": {"OBJECT_NAME": "STARLINK-36125", "OBJECT_ID": "2025-294G", "EPOCH": "2025-12-24T06:00:02.000160", "MEAN_MOTION": 15.75291528, "ECCENTRICITY": 0.00016434, "INCLINATION": 42.9999, "RA_OF_ASC_NODE": 111.7287, "ARG_OF_PERICENTER": 270.1504, "MEAN_ANOMALY": 105.6648, "EPHEMERIS_TYPE": 0, "CLASSIFICATION_TYPE": "U", "NORAD_CAT_ID": 67036, "ELEMENT_SET_NO": 999, "REV_AT_EPOCH": 215, "BSTAR": -0.013992327, "MEAN_MOTION_DOT": -0.01891779, "MEAN_MOTION_DDOT": 0}, "tle": {"line1": "1 67036U 25294G   25358.25002315 -.01891779  00000+0 -13992-1 0  9993", "line2": "2 67036  42.9999 111.7287 0001643 270.1504 105.6648 15.75291528  2159"}}, "geometry": {"type": "Point", "coordinates": [-6.010236618002734, -40.40090904405487]}}, {"type": "Feature", "properties": {"norad_id": 67037, "name": "STARLINK-35732", "group": "last-30-days", "lat": -41.50049489032548, "lon": -0.2853626192755706, "alt_km": 353.0794571781289, "timestamp": "2025-12-24T20:42:19.748600+00:00", "meta": {"OBJECT_NAME": "STARLINK-35732", "OBJECT_ID": "2025-294H", "EPOCH": "2025-12-24T06:00:02.000160", "MEAN_MOTION": 15.75253382, "ECCENTRICITY": 0.00016733, "INCLINATION": 42.9995, "RA_OF_ASC_NODE": 111.7173, "ARG_OF_PERICENTER": 274.3563, "MEAN_ANOMALY": 106.0128, "EPHEMERIS_TYPE": 0, "CLASSIFICATION_TYPE": "U", "NORAD_CAT_ID": 67037, "ELEMENT_SET_NO": 999, "REV_AT_EPOCH": 207, "BSTAR": -0.013981987, "MEAN_MOTION_DOT": -0.01887826, "MEAN_MOTION_DDOT": 0}, "tle": {"line1": "1 67037U 25294H   25358.25002315 -.01887826  00000+0 -13982-1 0  9991", "line2": "2 67037  42.9995 111.7173 0001673 274.3563 106.0128 15.75253382  2079"}}, "geometry": {"type": "Point", "coordinates": [-0.2853626192755706, -41.50049489032548]}}, {"type": "Feature", "properties": {"norad_id": 67038, "name": "STARLINK-35775", "group": "last-30-days", "lat": -41.91139052091053, "lon": 2.423916349709326, "alt_km": 353.16488386099536, "timestamp": "2025-12-24T20:42:19.748610+00:00", "meta": {"OBJECT_NAME": "STARLINK-35775", "OBJECT_ID": "2025-294J", "EPOCH": "2025-12-24T06:00:02.000160", "MEAN_MOTION": 15.75250836, "ECCENTRICITY": 0.0001615, "INCLINATION": 42.9998, "RA_OF_ASC_NODE": 111.7119, "ARG_OF_PERICENTER": 276.2057, "MEAN_ANOMALY": 106.2492, "EPHEMERIS_TYPE": 0, "CLASSIFICATION_TYPE": "U", "NORAD_CAT_ID": 67038, "ELEMENT_SET_NO": 999, "REV_AT_EPOCH": 207, "BSTAR": -0.01403063, "MEAN_MOTION_DOT": -0.01893276, "MEAN_MOTION_DDOT": 0}, "tle": {"line1": "1 67038U 25294J   25358.25002315 -.01893276  00000+0 -14031-1 0  9994", "line2": "2 67038  42.9998 111.7119 0001615 276.2057 106.2492 15.75250836  2075"}}, "geometry": {"type": "Point", "coordinates": [2.423916349709326, -41.91139052091053]}}, {"type": "Feature", "properties": {"norad_id": 67039, "name": "STARLINK-35705", "group": "last-30-days", "lat": -42.54765698938941, "lon": 8.058014394737464, "alt_km": 353.2571980970315, "timestamp": "2025-12-24T20:42:19.748620+00:00", "meta": {"OBJECT_NAME": "STARLINK-35705", "OBJECT_ID": "2025-294K", "EPOCH": "2025-12-24T06:00:02.000160", "MEAN_MOTION": 15.75237502, "ECCENTRICITY": 0.00015361, "INCLINATION": 42.9997, "RA_OF_ASC_NODE": 111.7012, "ARG_OF_PERICENTER": 275.1686, "MEAN_ANOMALY": 111.557, "EPHEMERIS_TYPE": 0, "CLASSIFICATION_TYPE": "U", "NORAD_CAT_ID": 67039, "ELEMENT_SET_NO": 999, "REV_AT_EPOCH": 196, "BSTAR": -0.014090819, "MEAN_MOTION_DOT": -0.0189926, "MEAN_MOTION_DDOT": 0}, "tle": {"line1": "1 67039U 25294K   25358.25002315 -.01899260  00000+0 -14091-1 0  9990", "line2": "2 67039  42.9997 111.7012 0001536 275.1686 111.5570 15.75237502  1963"}}, "geometry": {"type": "Point", "coordinates": [8.058014394737464, -42.54765698938941]}}]}